NORAD_CAT_ID,OBJECT_NAME,OBJECT_TYPE,EPOCH,MEAN_MOTION,ECCENTRICITY,INCLINATION,RA_OF_ASC_NODE,ARG_OF_PERICENTER,MEAN_ANOMALY,BSTAR,MEAN_MOTION_DOT,MEAN_MOTION_DDOT,TLE_LINE0,TLE_LINE1,TLE_LINE2,SEMIMAJOR_AXIS,PERIOD,APOGEE,PERIGEE,DECAYED
55676.0,STARLINK-5300,PAYLOAD,2023-06-08 12:37:04,15.69921478,0.0002988,69.9981,198.5213,267.6314,92.454,7.2708e-07,-1.25e-06,0.0,0 STARLINK-5300,1 55676U 23021BA  23159.52574796 -.00000125  00000-0  72708-6 0  9991,2 55676  69.9981 198.5213 0002988 267.6314  92.4540 15.69921478 18238,6737.259,91.724,361.137,357.111,0.0
55676.0,STARLINK-5300,PAYLOAD,2023-06-09 02:22:50,15.69937248,0.000333,69.9975,196.9095,254.2241,105.8588,-1.8352e-05,-2.42e-05,0.0,0 STARLINK-5300,1 55676U 23021BA  23160.09919259 -.00002420  00000-0 -18352-4 0  9996,2 55676  69.9975 196.9095 0003330 254.2241 105.8588 15.69937248 18013,6737.214,91.723,361.322,356.835,0.0
55676.0,STARLINK-5300,PAYLOAD,2023-06-09 08:29:51,15.69930316,0.00033,69.9974,196.1934,255.4545,104.6285,-1.7514e-05,-2.319e-05,0.0,0 STARLINK-5300,1 55676U 23021BA  23160.35406269 -.00002319  00000-0 -17514-4 0  9993,2 55676  69.9974 196.1934 0003300 255.4545 104.6285 15.69930316 18057,6737.233,91.724,361.322,356.875,0.0
55676.0,STARLINK-5300,PAYLOAD,2023-06-09 10:01:36,15.699156,0.0003517,69.997,196.0154,262.4901,97.5896,7.0072e-06,6.29e-06,0.0,0 STARLINK-5300,1 55676U 23021BA  23160.41778456  .00000629  00000-0  70072-5 0  9999,2 55676  69.9970 196.0154 0003517 262.4901  97.5896 15.69915600 18372,6737.275,91.725,361.51,356.771,0.0
55676.0,STARLINK-5300,PAYLOAD,2023-06-09 11:33:21,15.69919644,0.0003471,69.9962,195.8359,261.8014,98.2788,1.9448e-06,2.1e-07,0.0,0 STARLINK-5300,1 55676U 23021BA  23160.48150001  .00000021  00000-0  19448-5 0  9992,2 55676  69.9962 195.8359 0003471 261.8014  98.2788 15.69919644 18071,6737.264,91.724,361.467,356.79,0.0
55676.0,STARLINK-5300,PAYLOAD,2023-06-09 23:47:22,15.69930615,0.0003357,69.9979,194.4032,261.9478,98.1337,-7.8761e-07,-3.08e-06,0.0,0 STARLINK-5300,1 55676U 23021BA  23160.99122826 -.00000308  00000-0 -78761-6 0  9996,2 55676  69.9979 194.4032 0003357 261.9478  98.1337 15.69930615 18159,6737.233,91.724,361.359,356.836,0.0
55676.0,STARLINK-5300,PAYLOAD,2023-06-10 08:57:53,15.69917695,0.0003367,69.9984,193.3286,274.8984,85.1827,1.0474e-05,1.046e-05,0.0,0 STARLINK-5300,1 55676U 23021BA  23161.37353544  .00001046  00000-0  10474-4 0  9995,2 55676  69.9984 193.3286 0003367 274.8984  85.1827 15.69917695 18210,6737.269,91.725,361.403,356.866,0.0
55676.0,STARLINK-5300,PAYLOAD,2023-06-10 12:01:23,15.6992018,0.0003458,69.998,192.9707,270.5782,89.5017,6.6335e-06,5.85e-06,0.0,0 STARLINK-5300,1 55676U 23021BA  23161.50096826  .00000585  00000-0  66335-5 0  9992,2 55676  69.9980 192.9707 0003458 270.5782  89.5017 15.69920180 18547,6737.262,91.724,361.457,356.798,0.0
55676.0,STARLINK-5300,PAYLOAD,2023-06-10 19:40:08,15.69931244,0.0003778,69.9965,192.0754,264.8741,95.2023,4.4061e-06,3.17e-06,0.0,0 STARLINK-5300,1 55676U 23021BA  23161.81954321  .00000317  00000-0  44061-5 0  9994,2 55676  69.9965 192.0754 0003778 264.8741  95.2023 15.69931244 18598,6737.231,91.724,361.641,356.55,0.0
55676.0,STARLINK-5300,PAYLOAD,2023-06-11 12:29:25,15.69921288,0.0003437,69.997,190.1051,263.8599,96.2205,1.2453e-05,1.285e-05,0.0,0 STARLINK-5300,1 55676U 23021BA  23162.52043305  .00001285  00000-0  12453-4 0  9998,2 55676  69.9970 190.1051 0003437 263.8599  96.2205 15.69921288 18708,6737.259,91.724,361.44,356.809,0.0
55676.0,STARLINK-5300,PAYLOAD,2023-06-12 03:46:57,15.69910072,0.000358,69.9975,188.3128,265.6335,94.4451,5.9889e-07,-1.41e-06,0.0,0 STARLINK-5300,1 55676U 23021BA  23163.15760860 -.00000141  00000-0  59889-6 0  9997,2 55676  69.9975 188.3128 0003580 265.6335  94.4451 15.69910072 18492,6737.291,91.725,361.568,356.744,0.0
55676.0,STARLINK-5300,PAYLOAD,2023-06-12 09:53:57,15.69921409,0.0003556,69.9975,187.5968,262.5596,97.5196,1.3907e-05,1.459e-05,0.0,0 STARLINK-5300,1 55676U 23021BA  23163.41246682  .00001459  00000-0  13907-4 0  9998,2 55676  69.9975 187.5968 0003556 262.5596  97.5196 15.69921409 18534,6737.259,91.724,361.52,356.728,0.0
55676.0,STARLINK-5300,PAYLOAD,2023-06-12 12:57:28,15.69916638,0.0003489,69.9974,187.2389,266.0361,94.0436,-4.2133e-06,-7.19e-06,0.0,0 STARLINK-5300,1 55676U 23021BA  23163.53990777 -.00000719  00000-0 -42133-5 0  9996,2 55676  69.9974 187.2389 0003489 266.0361  94.0436 15.69916638 18864,6737.272,91.725,361.488,356.787,0.0
55676.0,STARLINK-5300,PAYLOAD,2023-06-12 22:07:58,15.69923544,0.0003548,69.9973,186.1637,266.4127,93.6662,1.1522e-05,1.173e-05,0.0,0 STARLINK-5300,1 55676U 23021BA  23163.92220094  .00001173  00000-0  11522-4 0  9997,2 55676  69.9973 186.1637 0003548 266.4127  93.6662 15.69923544 18924,6737.253,91.724,361.508,356.727,0.0
55676.0,STARLINK-5300,PAYLOAD,2023-06-13 11:53:43,15.69931034,0.0003631,69.9973,184.5517,265.2221,94.856,1.0863e-05,1.094e-05,0.0,0 STARLINK-5300,1 55676U 23021BA  23164.49564657  .00001094  00000-0  10863-4 0  9995,2 55676  69.9973 184.5517 0003631 265.2221  94.8560 15.69931034 18707,6737.231,91.724,361.543,356.65,0.0
55676.0,STARLINK-5300,PAYLOAD,2023-06-13 13:25:28,15.69931201,0.0003687,69.9974,184.3723,263.8716,96.2059,9.3187e-06,9.08e-06,0.0,0 STARLINK-5300,1 55676U 23021BA  23164.55936301  .00000908  00000-0  93187-5 0  9995,2 55676  69.9974 184.3723 0003687 263.8716  96.2059 15.69931201 19020,6737.231,91.724,361.58,356.612,0.0
55676.0,STARLINK-5300,PAYLOAD,2023-06-13 21:04:15,15.69923876,0.0003661,69.9974,183.4769,263.4398,96.6381,3.9885e-06,2.67e-06,0.0,0 STARLINK-5300,1 55676U 23021BA  23164.87795186  .00000267  00000-0  39885-5 0  9997,2 55676  69.9974 183.4769 0003661 263.4398  96.6381 15.69923876 19070,6737.252,91.724,361.583,356.65,0.0
55676.0,STARLINK-5300,PAYLOAD,2023-06-14 01:39:30,15.69912339,0.0003625,69.9973,182.9394,264.8633,95.2149,1.692e-05,1.821e-05,0.0,0 STARLINK-5300,1 55676U 23021BA  23165.06910575  .00001821  00000-0  16920-4 0  9991,2 55676  69.9973 182.9394 0003625 264.8633  95.2149 15.69912339 18791,6737.285,91.725,361.592,356.708,0.0
55676.0,STARLINK-5300,PAYLOAD,2023-06-14 10:50:00,15.69923901,0.000366,69.9973,181.8645,267.9698,92.1079,2.7992e-05,3.154e-05,0.0,0 STARLINK-5300,1 55676U 23021BA  23165.45139862  .00003154  00000-0  27992-4 0  9998,2 55676  69.9973 181.8645 0003660 267.9698  92.1079 15.69923901 18854,6737.252,91.724,361.583,356.651,0.0
55676.0,STARLINK-5300,PAYLOAD,2023-06-14 12:21:47,15.69907858,0.0003638,69.9973,181.6857,266.8744,93.2036,-1.9373e-06,-4.46e-06,0.0,0 STARLINK-5300,1 55676U 23021BA  23165.51513162 -.00000446  00000-0 -19373-5 0  9992,2 55676  69.9973 181.6857 0003638 266.8744  93.2036 15.69907858 19176,6737.298,91.725,361.614,356.712,0.0
55676.0,STARLINK-5300,PAYLOAD,2023-06-14 18:28:47,15.69920943,0.0003611,69.9973,180.969,266.8472,93.231,7.263e-06,6.6e-06,0.0,0 STARLINK-5300,1 55676U 23021BA  23165.76998998  .00000660  00000-0  72630-5 0  9994,2 55676  69.9973 180.9690 0003611 266.8472  93.2310 15.69920943 18907,6737.26,91.724,361.558,356.692,0.0
55676.0,STARLINK-5300,PAYLOAD,2023-06-14 20:00:32,15.69923718,0.0003645,69.9973,180.7899,266.7452,93.3327,1.0994e-05,1.109e-05,0.0,0 STARLINK-5300,1 55676U 23021BA  23165.83370444  .00001109  00000-0  10994-4 0  9995,2 55676  69.9973 180.7899 0003645 266.7452  93.3327 15.69923718 19228,6737.252,91.724,361.573,356.662,0.0
55676.0,STARLINK-5300,PAYLOAD,2023-06-15 12:49:48,15.69923413,0.000358,69.9989,178.8193,269.5145,90.564,9.5747e-06,9.39e-06,0.0,0 STARLINK-5300,1 55676U 23021BA  23166.53458915  .00000939  00000-0  95747-5 0  9993,2 55676  69.9989 178.8193 0003580 269.5145  90.5640 15.69923413 19339,6737.253,91.724,361.53,356.706,0.0
55676.0,STARLINK-5300,PAYLOAD,2023-06-15 14:21:33,15.69925209,0.0003613,69.9988,178.6402,267.3507,92.7275,1.2035e-05,1.235e-05,0.0,0 STARLINK-5300,1 55676U 23021BA  23166.59830479  .00001235  00000-0  12035-4 0  9996,2 55676  69.9988 178.6402 0003613 267.3507  92.7275 15.69925209 19348,6737.248,91.724,361.547,356.679,0.0
55676.0,STARLINK-5300,PAYLOAD,2023-06-16 02:35:34,15.69930628,0.0003685,69.9985,177.2067,269.0824,90.9949,2.8885e-05,3.263e-05,0.0,0 STARLINK-5300,1 55676U 23021BA  23167.10803562  .00003263  00000-0  28885-4 0  9990,2 55676  69.9985 177.2067 0003685 269.0824  90.9949 15.69930628 19111,6737.232,91.724,361.58,356.615,0.0
55676.0,STARLINK-5300,PAYLOAD,2023-06-16 11:46:04,15.69935157,0.0003591,69.999,176.1326,269.2657,90.8127,3.5013e-05,4.001e-05,0.0,0 STARLINK-5300,1 55676U 23021BA  23167.49033344  .00004001  00000-0  35013-4 0  9997,2 55676  69.9990 176.1326 0003591 269.2657  90.8127 15.69935157 19484,6737.22,91.724,361.504,356.665,0.0
55676.0,STARLINK-5300,PAYLOAD,2023-06-16 14:49:35,15.699076,0.0003419,69.9989,175.7742,271.2554,88.825,-3.8313e-05,-4.814e-05,0.0,0 STARLINK-5300,1 55676U 23021BA  23167.61777701 -.00004814  00000-0 -38313-4 0  9993,2 55676  69.9989 175.7742 0003419 271.2554  88.8250 15.69907600 19191,6737.298,91.725,361.467,356.86,0.0
55676.0,STARLINK-5300,PAYLOAD,2023-06-16 19:24:51,15.69913546,0.0003666,69.999,175.2366,267.115,92.9626,-2.5091e-05,-3.228e-05,0.0,0 STARLINK-5300,1 55676U 23021BA  23167.80892464 -.00003228  00000-0 -25091-4 0  9995,2 55676  69.9990 175.2366 0003666 267.1150  92.9626 15.69913546 19537,6737.281,91.725,361.616,356.676,0.0
55676.0,STARLINK-5300,PAYLOAD,2023-06-17 00:00:06,15.69918628,0.0003594,69.999,174.6991,267.3322,92.7462,-9.6643e-06,-1.375e-05,0.0,0 STARLINK-5300,1 55676U 23021BA  23168.00007318 -.00001375  00000-0 -96643-5 0  9997,2 55676  69.9990 174.6991 0003594 267.3322  92.7462 15.69918628 19258,6737.267,91.724,361.553,356.71,0.0
55676.0,STARLINK-5300,PAYLOAD,2023-06-17 03:03:36,15.6992321,0.0003585,69.9991,174.341,267.1281,92.9505,3.3402e-05,3.805e-05,0.0,0 STARLINK-5300,1 55676U 23021BA  23168.12750595  .00003805  00000-0  33402-4 0  9993,2 55676  69.9991 174.3410 0003585 267.1281  92.9505 15.69923210 19583,6737.254,91.724,361.534,356.703,0.0
